STARLINK-2220           
1 48570U 21041T   24021.30323149 -.00000805  00000+0 -35176-4 0  9996
2 48570  53.0547  35.9296 0001407  98.0144 262.1005 15.06393116147735
STARLINK-2221           
1 48571U 21041U   24021.44329926  .00003200  00000+0  23367-3 0  9999
2 48571  53.0537  35.3003 0001536  75.4383 284.6776 15.06389741147768
STARLINK-2222           
1 48572U 21041V   24021.30691383  .00005639  00000+0  39709-3 0  9999
2 48572  53.0557  35.9120 0001749 130.4100 229.7042 15.06406093147746
STARLINK-2224           
1 48573U 21041W   24021.41841742 -.00000076  00000+0  13812-4 0  9997
2 48573  53.0556  25.4108 0001613  85.3385 274.7788 15.06395243147896
STARLINK-2225           
1 48574U 21041X   24021.91878933  .00008665  00000+0  59975-3 0  9995
2 48574  53.0547 353.2543 0001342  87.6561 272.4581 15.06409979148396
STARLINK-2227           
1 48575U 21041Y   24021.33736504  .00003554  00000+0  25748-3 0  9992
2 48575  53.0555 346.0941 0001260  82.6518 277.4614 15.06385013148455
STARLINK-2228           
1 48576U 21041Z   24021.33777875  .00025863  00000+0  17495-2 0  9995
2 48576  53.0548   0.7760 0001297  98.1096 262.0040 15.06386044148249
STARLINK-2231           
1 48577U 21041AA  24021.38571606  .00002231  00000+0  17586-3 0  9991
2 48577  53.0549  25.2964 0001494  93.4879 266.6280 15.04767547147890
STARLINK-2232           
1 48578U 21041AB  24021.44059321  .00000314  00000+0  39991-4 0  9999
2 48578  53.0560  25.8269 0001817 105.8885 254.2304 15.06393477147891
STARLINK-2233           
1 48579U 21041AC  24021.26729227 -.00000153  00000+0  86449-5 0  9992
2 48579  53.0541  26.0899 0001574 103.7918 256.3246 15.06388714147871
STARLINK-2234           
1 48580U 21041AD  24021.23457754  .00000920  00000+0  80684-4 0  9999
2 48580  53.0557   1.2494 0001506  90.4118 269.7044 15.06390818148227
STARLINK-2235           
1 48581U 21041AE  24021.92477087  .00016889  00000+0  11495-2 0  9990
2 48581  53.0556 348.1494 0001384  91.6574 268.4574 15.06415530148473
STARLINK-2236           
1 48582U 21041AF  24021.17655042  .00001800  00000+0  13974-3 0  9999
2 48582  53.0549 351.6651 0001611  97.2519 262.8653 15.06392657148351
STARLINK-2237           
1 48583U 21041AG  24021.31429235  .00001781  00000+0  13843-3 0  9992
2 48583  53.0551  35.8800 0001441  85.1113 275.0041 15.06397482147749
STARLINK-2238           
1 48584U 21041AH  24021.42118401  .00003221  00000+0  23504-3 0  9991
2 48584  53.0543  35.3999 0001307  91.5306 268.5833 15.06402212147756
STARLINK-2240           
1 48585U 21041AJ  24021.43224367  .00003275  00000+0  23866-3 0  9992
2 48585  53.0554  35.3494 0001590  81.6935 278.4234 15.06398006147751
STARLINK-2241           
1 48586U 21041AK  24021.42487149  .00000252  00000+0  35833-4 0  9991
2 48586  53.0552  35.3815 0001405 102.4771 257.6376 15.06387734147754
STARLINK-2242           
1 48587U 21041AL  24021.29586222  .00001440  00000+0  11557-3 0  9995
2 48587  53.0555  35.9609 0001432  93.4887 266.6266 15.06390572147732
STARLINK-2244           
1 48588U 21041AM  24021.27836037  .00002377  00000+0  17847-3 0  9994
2 48588  53.0541  26.0797 0001509  80.9022 279.2137 15.06394695147876
STARLINK-2245           
1 48589U 21041AN  24021.27098545  .00002091  00000+0  15930-3 0  9993
2 48589  53.0558  26.0736 0001402  86.3304 273.7845 15.06390191147875
STARLINK-2248           
1 48591U 21041AQ  24021.27469584  .00001812  00000+0  14054-3 0  9997
2 48591  53.0560  26.2599 0001457  90.4960 269.6196 15.06390061148773
STARLINK-2249           
1 48592U 21041AR  24021.41752325  .00003222  00000+0  23510-3 0  9996
2 48592  53.0554  35.6467 0001232  87.7364 272.3766 15.06398332147753
STARLINK-2250           
1 48593U 21041AS  24021.27005646 -.00000694  00000+0 -27715-4 0  9992
2 48593  53.0546  36.0792 0001393  92.2557 267.8592 15.06392976147736
STARLINK-2251           
1 48594U 21041AT  24021.96209917  .00015046  00000+0  10265-2 0  9991
2 48594  53.0558   3.0541 0001501  99.6690 260.4468 15.06411993148267
STARLINK-2252           
1 48595U 21041AU  24021.45067107  .00001620  00000+0  12763-3 0  9998
2 48595  53.0550  35.2683 0001551 101.0599 259.0565 15.06397548149032
STARLINK-2253           
1 48596U 21041AV  24021.34009042 -.00000057  00000+0  15085-4 0  9996
2 48596  53.0550  35.7573 0001464 105.7149 254.4001 15.06393663148207
STARLINK-2255           
1 48597U 21041AW  24021.41380557  .00001606  00000+0  12673-3 0  9997
2 48597  53.0543  35.4325 0001522  85.6470 274.4693 15.06388344149020
STARLINK-2256           
1 48598U 21041AX  24021.34898489  .00006762  00000+0  60561-4 0  9996
2 48598  53.0517 359.3038 0001343  50.5257 309.5878 15.69737350148710
STARLINK-2274           
1 48599U 21041AY  24021.17837848 -.00003850  00000+0 -23984-3 0  9994
2 48599  53.0546  11.4795 0001363 127.4990 232.6123 15.06376277149346
STARLINK-2275           
1 48600U 21041AZ  24021.41473452  .00001418  00000+0  11407-3 0  9994
2 48600  53.0540  25.4289 0001361  88.1317 271.9828 15.06395958149165
STARLINK-2713           
1 48602U 21041BB  24021.34423991 -.00000697  00000+0 -27933-4 0  9993
2 48602  53.0555  10.7481 0001392  94.2705 265.8443 15.06392981149356
STARLINK-2714           
1 48603U 21041BC  24021.32347868  .00000946  00000+0  82430-4 0  9998
2 48603  53.0557   5.8382 0001425 101.8448 258.2701 15.06395541149437
STARLINK-2757           
1 48604U 21041BD  24021.32535371  .00000201  00000+0  32403-4 0  9996
2 48604  53.0543  35.8301 0001483  86.8397 273.2762 15.06389460149017
FALCON 9 DEB            
1 48607U 21041BG  24021.53911000  .00002877  00000+0  24066-3 0  9995
2 48607  53.0375  82.3383 0012726 353.0679   7.0130 15.01474827147066
FALCON 9 DEB            
1 48608U 21041BH  24021.40467066  .00005306  00000+0  42449-3 0  9995
2 48608  53.0334  87.3703 0012433   6.2531 353.8608 15.01620098146976
FALCON 9 DEB            
1 48609U 21041BJ  24021.54024051  .00003285  00000+0  26703-3 0  9993
2 48609  53.0306  80.2216 0011051 351.6586   8.4216 15.02176844147086
FALCON 9 DEB            
1 48610U 21041BK  24021.55086709  .00005964  00000+0  45664-3 0  9997
2 48610  53.0283  76.7051 0013513 349.5292  10.5412 15.03084852147130
STARLINK-2758           
1 48638U 21044A   24021.94040977  .00005240  00000+0  37044-3 0  9990
2 48638  53.0547   8.0720 0001464  97.6110 262.5046 15.06399257146554
STARLINK-2739           
1 48639U 21044B   24021.92660734  .00012264  00000+0  84075-3 0  9998
2 48639  53.0554   8.1415 0001463  93.3391 266.7765 15.06400448146557
STARLINK-2736           
1 48640U 21044C   24021.91927532  .00001574  00000+0  12454-3 0  9995
2 48640  53.0559   8.4437 0001692  66.8410 293.2757 15.06402223146540
STARLINK-2754           
1 48641U 21044D   24021.20186456  .00000110  00000+0  26289-4 0  9997
2 48641  53.0554  16.3837 0001487 104.4433 255.6721 15.06398172146375
STARLINK-2646           
1 48642U 21044E   24021.41565871 -.00001128  00000+0 -56836-4 0  9996
2 48642  53.0549  15.4330 0001373  81.5214 278.5931 15.06388686146404
STARLINK-2704           
1 48643U 21044F   24021.19723472  .00000985  00000+0  85038-4 0  9999
2 48643  53.0549  16.3893 0001594 108.9740 251.1422 15.06402382146370
STARLINK-2695           
1 48644U 21044G   24021.26084593  .00000880  00000+0  77956-4 0  9996
2 48644  53.0552  16.1204 0001466  98.4833 261.6322 15.06388611146387
STARLINK-2733           
1 48645U 21044H   24021.25715752 -.00001181  00000+0 -60380-4 0  9994
2 48645  53.0537  16.1359 0001537  82.3995 277.7168 15.06394723146389
STARLINK-2732           
1 48646U 21044J   24021.38616914  .00002756  00000+0  20387-3 0  9998
2 48646  53.0543  15.5556 0001405  83.6929 276.4220 15.06399618146400
STARLINK-2691           
1 48647U 21044K   24021.38248048  .00002816  00000+0  20784-3 0  9996
2 48647  53.0561  15.5746 0001423  96.0901 264.0250 15.06400757146403
STARLINK-2521           
1 48648U 21044L   24021.26455037  .00000631  00000+0  61246-4 0  9994
2 48648  53.0545  16.2676 0001667  75.7741 284.3433 15.06394507146382
STARLINK-2673           
1 48649U 21044M   24021.37879424  .00000871  00000+0  77372-4 0  9990
2 48649  53.0552  15.5895 0001259  98.6892 261.4240 15.06394425146396
STARLINK-2672           
1 48650U 21044N   24021.37510993  .00002658  00000+0  19724-3 0  9996
2 48650  53.0551  15.6054 0001410  91.7446 268.3705 15.06399291146391
STARLINK-2731           
1 48651U 21044P   24021.37142305  .00001790  00000+0  13901-3 0  9992
2 48651  53.0541  15.6218 0001466  88.8746 271.2411 15.06397473146391
STARLINK-2727           
1 48652U 21044Q   24021.96485249  .00006828  00000+0  47686-3 0  9999
2 48652  53.0542  12.9600 0001601  87.0202 273.0970 15.06400411146484
STARLINK-2720           
1 48653U 21044R   24021.96116776  .00002736  00000+0  20247-3 0  9994
2 48653  53.0555  12.9757 0001475  84.0205 276.0953 15.06409226146488
STARLINK-2651           
1 48654U 21044S   24021.95748304  .00004038  00000+0  28988-3 0  9999
2 48654  53.0537  12.9903 0001315 110.8978 249.2151 15.06392417146485
STARLINK-2657           
1 48655U 21044T   24021.95379948  .00001682  00000+0  13181-3 0  9995
2 48655  53.0552  13.0106 0001554  95.5456 264.5710 15.06400268146480
STARLINK-2701           
1 48656U 21044U   24021.95011591  .00002574  00000+0  19165-3 0  9992
2 48656  53.0545  13.0191 0001403  86.4802 273.6347 15.06394187146483
STARLINK-2734           
1 48657U 21044V   24021.38149446  .00009431  00000+0  65163-3 0  9999
2 48657  53.0560  15.2206 0001619  73.4582 286.6585 15.06373946146402
STARLINK-2647           
1 48658U 21044W   24021.21292405 -.00004340  00000+0 -27269-3 0  9997
2 48658  53.0549  16.3334 0001460  77.0619 283.0533 15.06392309146373
STARLINK-2717           
1 48659U 21044X   24021.93905283  .00014845  00000+0  10132-2 0  9991
2 48659  53.0558  13.0770 0001484  81.5169 278.5988 15.06407980146485
